GOES 1 (SMS-C) [-]      
1 08366U 75100A   22283.59632632 -.00000243  00000+0  00000+0 0  9997
2 08366   8.0035 294.2878 0003058 265.4138 312.5406  1.00259269171572
GOES 2 [-]              
1 10061U 77048A   22284.17436885  .00000082  00000+0  00000+0 0  9992
2 10061   9.5935 305.8721 0010515  22.3288 173.2292  0.99394048110143
GOES 3 [-]              
1 10953U 78062A   22284.18917253 -.00000053  00000+0  00000+0 0  9992
2 10953   9.9300 310.4397 0002513 183.7262 218.1535  0.99358196115235
GOES 4 [-]              
1 11964U 80074A   22284.18024602 -.00000115  00000+0  00000+0 0  9997
2 11964  10.8971 314.2647 0031265  77.8823 330.6082  0.99228454114289
GOES 5 [-]              
1 12472U 81049A   22283.51544574 -.00000294  00000+0  00000+0 0  9994
2 12472  11.7632 325.7034 0002233 205.1248 325.3894  1.00292130109354
GOES 6 [-]              
1 14050U 83041A   22283.14209730 -.00000276  00000+0  00000+0 0  9993
2 14050  12.3360 331.0315 0004522 165.1899 218.8817  1.00274258202520
GOES 7 [-]              
1 17561U 87022A   22283.83465257 -.00000198  00000+0  00000+0 0  9993
2 17561  14.1452 347.5997 0004240  79.4233 345.5245  0.99891003113520
GOES 8 [-]              
1 23051U 94022A   22283.81781343 -.00000288  00000+0  00000+0 0  9997
2 23051  13.2752  23.3680 0004374  57.4365  27.4313  0.98908077110823
GOES 9 [-]              
1 23581U 95025A   22282.94739468 -.00000110  00000+0  00000+0 0  9997
2 23581  12.7686  23.7387 0007741 120.5138 236.2451  0.98800930 99457
GOES 10 [-]             
1 24786U 97019A   22283.57141505 -.00000142  00000+0  00000+0 0  9994
2 24786  11.5503  29.9471 0027905 200.9360 178.5419  0.99126705 92734
GOES 11 [-]             
1 26352U 00022A   22283.73847670 -.00000095  00000+0  00000+0 0  9994
2 26352   8.9258  58.3836 0002573 146.8482  96.3115  0.99044144 39142
GOES 12 [-]             
1 26871U 01031A   22283.14980001 -.00000262  00000+0  00000+0 0  9998
2 26871   9.7219  47.4119 0003361 319.3764  37.1651  0.99139568 77418
EWS-G1 (GOES 13) [+]    
1 29155U 06018A   22283.83799333  .00000029  00000+0  00000+0 0  9998
2 29155   0.8695  95.1169 0006543 122.5887 164.9138  1.00269887 29884
GOES 14 [B]             
1 35491U 09033A   22283.62063309 -.00000103  00000+0  00000+0 0  9996
2 35491   0.3368 266.6593 0018173 309.1254 282.5100  1.00272998 48610
GOES 15 [B]             
1 36411U 10008A   22283.70684345  .00000046  00000+0  00000+0 0  9996
2 36411   0.2967 278.2337 0004235 256.7740 330.4489  1.00268038 46175
GOES 16 [+]             
1 41866U 16071A   22283.59632632 -.00000258  00000+0  00000+0 0  9997
2 41866   0.0700 284.0336 0000728 314.5813 280.0613  1.00272382 21628
GOES 17 [+]             
1 43226U 18022A   22284.51123781  .00000091  00000+0  00000+0 0  9994
2 43226   0.0735 281.9686 0000426 291.8116 213.0216  1.00271212 16956
GOES 18 [+]             
1 51850U 22021A   22284.58413260  .00000090  00000+0  00000+0 0  9990
2 51850   0.0451  43.5885 0002851 179.4711 230.4263  1.00273168  2325
